OBJECT_NAME,OBJECT_ID,EPOCH,MEAN_MOTION,ECCENTRICITY,INCLINATION,RA_OF_ASC_NODE,ARG_OF_PERICENTER,MEAN_ANOMALY,EPHEMERIS_TYPE,CLASSIFICATION_TYPE,NORAD_CAT_ID,ELEMENT_SET_NO,REV_AT_EPOCH,BSTAR,MEAN_MOTION_DOT,MEAN_MOTION_DDOT
IRIDIUM 154,2018-061F,2026-07-15T13:22:58.457856,14.34217479,.00023025,86.3940,44.9399,90.6137,269.5322,0,U,43574,999,41747,.13991898E-4,.59E-6,0
IRIDIUM 163,2018-061G,2026-07-15T12:55:34.498272,14.34217269,.00021124,86.3936,44.8621,85.9654,274.1784,0,U,43575,999,41744,.549794E-5,.35E-6,0
IRIDIUM 156,2018-061H,2026-07-15T12:19:02.480160,14.34217656,.00021001,86.3936,44.8799,92.6168,267.5269,0,U,43576,999,41743,.11339256E-4,.52E-6,0
IRIDIUM 164,2018-061J,2026-07-15T11:51:38.575872,14.34218368,.00023266,86.3938,44.9289,89.1832,270.9630,0,U,43577,999,41747,.43143416E-4,.141E-5,0
IRIDIUM 159,2018-061K,2026-07-15T12:46:26.465664,14.34217468,.00021353,86.3935,44.8492,85.4483,274.6956,0,U,43578,999,41744,.9984229E-5,.48E-6,0
IRIDIUM 180,2019-002A,2026-07-15T11:05:14.951040,14.34218441,.00022179,86.3992,341.7775,90.8171,269.3279,0,U,43922,999,39304,.30187348E-4,.104E-5,0
IRIDIUM 176,2019-002B,2026-07-15T10:24:28.792512,14.72249215,.00023353,86.6111,341.7289,90.1250,270.0234,0,U,43923,999,40340,.56117565E-4,.378E-5,0
IRIDIUM 168,2019-002C,2026-07-15T10:56:06.946080,14.34216568,.00021009,86.3989,341.8584,91.1297,269.0140,0,U,43924,999,39302,-.19096091E-4,-.34E-6,0
IRIDIUM 173,2019-002D,2026-07-15T10:37:51.027744,14.34208831,.00015301,86.3997,341.7518,80.4573,279.6796,0,U,43925,999,39300,-.34070598E-4,-.76E-6,0
IRIDIUM 169,2019-002E,2026-07-15T13:28:24.818304,14.38613271,.00018946,86.4222,13.3267,103.6371,256.5038,0,U,43926,999,39430,.6033133E-5,.38E-6,0
IRIDIUM 172,2019-002F,2026-07-15T10:28:43.024512,14.34217484,.00021791,86.3989,341.7617,90.3155,269.8291,0,U,43927,999,39301,-.782281E-6,.18E-6,0
IRIDIUM 175,2019-002G,2026-07-15T06:41:38.060736,14.43627276,.00053087,86.4512,278.7791,115.1246,245.0506,0,U,43928,999,40303,.46218794E-4,.177E-5,0
IRIDIUM 171,2019-002H,2026-07-15T11:41:46.970880,14.34217663,.00022297,86.3999,342.0497,94.9941,265.1509,0,U,43929,999,39301,.5923934E-5,.36E-6,0
IRIDIUM 170,2019-002J,2026-07-15T10:33:21.864096,14.72249803,.00022602,86.6111,341.7285,86.6174,273.5301,0,U,43930,999,40341,.56406801E-4,.38E-5,0
IRIDIUM 167,2019-002K,2026-07-15T11:32:38.951232,14.34217747,.00023043,86.3992,341.7659,98.5913,261.5544,0,U,43931,999,39301,.5047548E-5,.34E-6,0
IRIDIUM 181,2023-068S,2026-07-15T12:45:21.585312,14.43312397,.00024121,86.4474,44.9372,83.4871,276.6605,0,U,56726,999,16652,.45155381E-4,.172E-5,0
IRIDIUM 177,2023-068T,2026-07-15T09:06:59.634432,14.80023801,.00021724,86.1986,315.4063,95.4124,264.7345,0,U,56727,999,17053,.65938931E-4,.525E-5,0
IRIDIUM 174,2023-068U,2026-07-15T10:15:26.654112,14.72258399,.00019871,86.6119,341.8838,87.8963,272.2482,0,U,56728,999,17017,.57730515E-4,.389E-5,0
IRIDIUM 178,2023-068V,2026-07-15T12:05:52.181088,14.80026387,.00023108,86.6535,13.5242,90.8385,269.3101,0,U,56729,999,17055,.20626849E-4,.182E-5,0
IRIDIUM 179,2023-068W,2026-07-15T00:36:38.349504,14.80033495,.00023212,86.6767,22.7863,93.3552,266.7935,0,U,56730,999,17048,.14650918E-4,.137E-5,0
