IRIDIUM 154             
1 43574U 18061F   26196.55762104  .00000059  00000+0  13992-4 0  9994
2 43574  86.3940  44.9399 0002302  90.6137 269.5322 14.34217479417470
IRIDIUM 163             
1 43575U 18061G   26196.53859373  .00000035  00000+0  54979-5 0  9993
2 43575  86.3936  44.8621 0002112  85.9654 274.1784 14.34217269417441
IRIDIUM 156             
1 43576U 18061H   26196.51322315  .00000052  00000+0  11339-4 0  9994
2 43576  86.3936  44.8799 0002100  92.6168 267.5269 14.34217656417433
IRIDIUM 164             
1 43577U 18061J   26196.49419648  .00000141  00000+0  43143-4 0  9995
2 43577  86.3938  44.9289 0002326  89.1832 270.9630 14.34218368417475
IRIDIUM 159             
1 43578U 18061K   26196.53225076  .00000048  00000+0  99842-5 0  9995
2 43578  86.3935  44.8492 0002135  85.4483 274.6956 14.34217468417446
IRIDIUM 180             
1 43922U 19002A   26196.46197860  .00000104  00000+0  30187-4 0  9994
2 43922  86.3992 341.7775 0002217  90.8171 269.3279 14.34218441393040
IRIDIUM 176             
1 43923U 19002B   26196.43366658  .00000378  00000+0  56118-4 0  9990
2 43923  86.6111 341.7289 0002335  90.1250 270.0234 14.72249215403406
IRIDIUM 168             
1 43924U 19002C   26196.45563595 -.00000034  00000+0 -19096-4 0  9997
2 43924  86.3989 341.8584 0002100  91.1297 269.0140 14.34216568393021
IRIDIUM 173             
1 43925U 19002D   26196.44295171 -.00000076  00000+0 -34071-4 0  9995
2 43925  86.3997 341.7518 0001530  80.4573 279.6796 14.34208831393007
IRIDIUM 169             
1 43926U 19002E   26196.56139836  .00000038  00000+0  60331-5 0  9999
2 43926  86.4222  13.3267 0001894 103.6371 256.5038 14.38613271394309
IRIDIUM 172             
1 43927U 19002F   26196.43660908  .00000018  00000+0 -78228-6 0  9999
2 43927  86.3989 341.7617 0002179  90.3155 269.8291 14.34217484393012
IRIDIUM 175             
1 43928U 19002G   26196.27891274  .00000177  00000+0  46219-4 0  9992
2 43928  86.4512 278.7791 0005308 115.1246 245.0506 14.43627276403035
IRIDIUM 171             
1 43929U 19002H   26196.48734920  .00000036  00000+0  59239-5 0  9991
2 43929  86.3999 342.0497 0002229  94.9941 265.1509 14.34217663393014
IRIDIUM 170             
1 43930U 19002J   26196.43983639  .00000380  00000+0  56407-4 0  9996
2 43930  86.6111 341.7285 0002260  86.6174 273.5301 14.72249803403419
IRIDIUM 167             
1 43931U 19002K   26196.48100638  .00000034  00000+0  50475-5 0  9998
2 43931  86.3992 341.7659 0002304  98.5913 261.5544 14.34217747393011
IRIDIUM 181             
1 56726U 23068S   26196.53149983  .00000172  00000+0  45155-4 0  9994
2 56726  86.4474  44.9372 0002412  83.4871 276.6605 14.43312397166529
IRIDIUM 177             
1 56727U 23068T   26196.37985688  .00000525  00000+0  65939-4 0  9991
2 56727  86.1986 315.4063 0002172  95.4124 264.7345 14.80023801170530
IRIDIUM 174             
1 56728U 23068U   26196.42739183  .00000389  00000+0  57731-4 0  9994
2 56728  86.6119 341.8838 0001987  87.8963 272.2482 14.72258399170175
IRIDIUM 178             
1 56729U 23068V   26196.50407617  .00000182  00000+0  20627-4 0  9993
2 56729  86.6535  13.5242 0002310  90.8385 269.3101 14.80026387170559
IRIDIUM 179             
1 56730U 23068W   26196.02544386  .00000137  00000+0  14651-4 0  9997
2 56730  86.6767  22.7863 0002321  93.3552 266.7935 14.80033495170481
